ONEWEB-0336             
1 49202U 21083S   26160.71707816 -.00000214  00000+0 -62116-3 0  9990
2 49202  87.8947 321.7159 0002243  94.8374 265.3011 13.13470255229930
ONEWEB-0337             
1 49203U 21083T   26160.72710403  .00000088  00000+0  20515-3 0  9992
2 49203  87.8944 321.7200 0001978  98.4174 261.7179 13.13470648229938
ONEWEB-0338             
1 49204U 21083U   26160.69270035  .00001537  00000+0  37474-2 0  9992
2 49204  87.9188 275.9435 0002285 105.0643 255.0743 13.20775391235827
ONEWEB-0339             
1 49205U 21083V   26160.73570239  .00000349  00000+0  92189-3 0  9992
2 49205  87.8946 321.7106 0001563  99.6059 260.5247 13.13470546229910
ONEWEB-0340             
1 49206U 21083W   26160.77350374 -.00000010  00000+0 -59277-4 0  9992
2 49206  87.9169 336.9305 0001914  91.4619 268.6733 13.18685048228996
ONEWEB-0341             
1 49207U 21083X   26160.78025097  .00000032  00000+0  47621-4 0  9997
2 49207  87.9162 336.9327 0002104 104.0253 256.1113 13.18685482229011
ONEWEB-0342             
1 49208U 21083Y   26160.69943304  .00000074  00000+0  14968-3 0  9991
2 49208  87.9190 275.9290 0001864 102.1156 258.0186 13.20771698235798
ONEWEB-0343             
1 49209U 21083Z   26160.78868643  .00000040  00000+0  69873-4 0  9993
2 49209  87.9164 336.9296 0001491  99.5491 260.5810 13.18685970229060
ONEWEB-0344             
1 49210U 21083AA  26160.73062268  .00000208  00000+0  53379-3 0  9998
2 49210  87.8936 321.7266 0002033 104.3416 255.7939 13.13472433229917
ONEWEB-0345             
1 49211U 21083AB  26160.72215328  .00000052  00000+0  10648-3 0  9994
2 49211  87.8955 321.7079 0001989 103.4038 256.7313 13.13471616229920
ONEWEB-0346             
1 49212U 21083AC  26160.78530900  .00000042  00000+0  74037-4 0  9999
2 49212  87.9159 336.9310 0002431  83.6337 276.5072 13.18685694229007
ONEWEB-0348             
1 49213U 21083AD  26160.61357269  .00000014  00000+0  32080-5 0  9999
2 49213  87.9193 275.9500 0002476 100.4500 259.6912 13.20770535235811
ONEWEB-0350             
1 49214U 21083AE  26160.73582451  .00000340  00000+0  90331-3 0  9999
2 49214  87.8953 321.7086 0002020 100.2542 259.8814 13.12943822229956
ONEWEB-0351             
1 49215U 21083AF  26160.60669062 -.00000014  00000+0 -65594-4 0  9994
2 49215  87.9193 275.9499 0001692 127.2463 232.8825 13.20770157235775
ONEWEB-0352             
1 49216U 21083AG  26160.71200065 -.00000171  00000+0 -50256-3 0  9993
2 49216  87.8949 321.7217 0001504 104.9199 255.2097 13.13470720230042
ONEWEB-0354             
1 49217U 21083AH  26160.70954294 -.00000028  00000+0 -10087-3 0  9992
2 49217  87.9190 275.9284 0002347 103.5203 256.6192 13.20772590235823
ONEWEB-0355             
1 49218U 21083AJ  26160.74092186  .00000419  00000+0  11118-2 0  9997
2 49218  87.8943 321.7174 0001778 102.1451 257.9878 13.13470470229927
ONEWEB-0357             
1 49219U 21083AK  26160.70617391 -.00000014  00000+0 -66602-4 0  9998
2 49219  87.9191 275.9234 0001826 105.7073 254.4262 13.20772277235827
ONEWEB-0332             
1 49279U 21090A   26160.60684251 -.00000297  00000+0 -83675-3 0  9991
2 49279  87.8959 291.2200 0001648  97.5587 262.5730 13.14502797226582
ONEWEB-0347             
1 49280U 21090B   26160.69606794 -.00000034  00000+0 -11501-3 0  9996
2 49280  87.9191 275.9335 0001722  97.1066 263.0264 13.20770713230059
ONEWEB-0349             
1 49281U 21090C   26160.57654883  .00000100  00000+0  21453-3 0  9995
2 49281  87.9191 275.9581 0001977 101.2971 258.8385 13.20772362228827
ONEWEB-0353             
1 49282U 21090D   26160.59893190  .00000089  00000+0  20478-3 0  9996
2 49282  87.8963 291.2170 0001652  96.1755 263.9563 13.14502718226586
ONEWEB-0356             
1 49283U 21090E   26160.72637774  .00000048  00000+0  85697-4 0  9996
2 49283  87.9191 275.9214 0002299  80.4128 279.7265 13.20773010228844
ONEWEB-0358             
1 49284U 21090F   26160.68058535 -.00033567  00000+0 -83292-1 0  9994
2 49284  87.9178 275.9367 0001883 102.4163 257.7181 13.20448814229565
ONEWEB-0359             
1 49285U 21090G   26160.60179717  .00000052  00000+0  95267-4 0  9992
2 49285  87.9190 275.9460 0002247 102.0948 258.0437 13.20773274229532
ONEWEB-0360             
1 49286U 21090H   26160.59169891  .00000202  00000+0  46500-3 0  9995
2 49286  87.9189 275.9543 0002075 103.9375 256.1989 13.20765531228847
ONEWEB-0361             
1 49287U 21090J   26160.72468221  .00000047  00000+0  84864-4 0  9993
2 49287  87.9191 275.9264 0002091  99.4391 260.6978 13.20770880229310
ONEWEB-0362             
1 49288U 21090K   26160.67135668  .00000107  00000+0  23503-3 0  9993
2 49288  87.9163 306.4758 0001802 105.8520 254.2812 13.19724036225922
ONEWEB-0363             
1 49289U 21090L   26160.58831445  .00000070  00000+0  14073-3 0  9991
2 49289  87.9190 275.9538 0002120  92.3431 267.7945 13.20770615229302
ONEWEB-0364             
1 49290U 21090M   26160.77855633  .00000008  00000+0 -11900-4 0  9998
2 49290  87.9185 275.9238 0001966 101.2480 258.8875 13.20770982230465
