OBJECT_NAME,OBJECT_ID,EPOCH,MEAN_MOTION,ECCENTRICITY,INCLINATION,RA_OF_ASC_NODE,ARG_OF_PERICENTER,MEAN_ANOMALY,EPHEMERIS_TYPE,CLASSIFICATION_TYPE,NORAD_CAT_ID,ELEMENT_SET_NO,REV_AT_EPOCH,BSTAR,MEAN_MOTION_DOT,MEAN_MOTION_DDOT
ONEWEB-0336,2021-083S,2026-06-09T17:12:35.553024,13.13470255,.00022434,87.8947,321.7159,94.8374,265.3011,0,U,49202,999,22993,-.62116088E-3,-.214E-5,0
ONEWEB-0337,2021-083T,2026-06-09T17:27:01.788192,13.13470648,.00019782,87.8944,321.7200,98.4174,261.7179,0,U,49203,999,22993,.2051451E-3,.88E-6,0
ONEWEB-0338,2021-083U,2026-06-09T16:37:29.310240,13.20775391,.00022857,87.9188,275.9435,105.0643,255.0743,0,U,49204,999,23582,.3747402E-2,.1537E-4,0
ONEWEB-0339,2021-083V,2026-06-09T17:39:24.686496,13.13470546,.00015633,87.8946,321.7106,99.6059,260.5247,0,U,49205,999,22991,.92189435E-3,.349E-5,0
ONEWEB-0340,2021-083W,2026-06-09T18:33:50.723136,13.18685048,.00019145,87.9169,336.9305,91.4619,268.6733,0,U,49206,999,22899,-.5927714E-4,-.1E-6,0
ONEWEB-0341,2021-083X,2026-06-09T18:43:33.683808,13.18685482,.00021042,87.9162,336.9327,104.0253,256.1113,0,U,49207,999,22901,.47620625E-4,.32E-6,0
ONEWEB-0342,2021-083Y,2026-06-09T16:47:11.014656,13.20771698,.00018646,87.9190,275.9290,102.1156,258.0186,0,U,49208,999,23579,.14967705E-3,.74E-6,0
ONEWEB-0343,2021-083Z,2026-06-09T18:55:42.507552,13.18685970,.00014912,87.9164,336.9296,99.5491,260.5810,0,U,49209,999,22906,.69872794E-4,.4E-6,0
ONEWEB-0344,2021-083AA,2026-06-09T17:32:05.799552,13.13472433,.0002033,87.8936,321.7266,104.3416,255.7939,0,U,49210,999,22991,.53378645E-3,.208E-5,0
ONEWEB-0345,2021-083AB,2026-06-09T17:19:54.043392,13.13471616,.00019893,87.8955,321.7079,103.4038,256.7313,0,U,49211,999,22992,.10648339E-3,.52E-6,0
ONEWEB-0346,2021-083AC,2026-06-09T18:50:50.697600,13.18685694,.00024312,87.9159,336.9310,83.6337,276.5072,0,U,49212,999,22900,.74036969E-4,.42E-6,0
ONEWEB-0348,2021-083AD,2026-06-09T14:43:32.680416,13.20770535,.00024766,87.9193,275.9500,100.4500,259.6912,0,U,49213,999,23581,.3208003E-5,.14E-6,0
ONEWEB-0350,2021-083AE,2026-06-09T17:39:35.237664,13.12943822,.00020209,87.8953,321.7086,100.2542,259.8814,0,U,49214,999,22995,.90330547E-3,.34E-5,0
ONEWEB-0351,2021-083AF,2026-06-09T14:33:38.069568,13.20770157,.00016922,87.9193,275.9499,127.2463,232.8825,0,U,49215,999,23577,-.65594163E-4,-.14E-6,0
ONEWEB-0352,2021-083AG,2026-06-09T17:05:16.856160,13.13470720,.00015047,87.8949,321.7217,104.9199,255.2097,0,U,49216,999,23004,-.50255647E-3,-.171E-5,0
ONEWEB-0354,2021-083AH,2026-06-09T17:01:44.510016,13.20772590,.00023472,87.9190,275.9284,103.5203,256.6192,0,U,49217,999,23582,-.10086866E-3,-.28E-6,0
ONEWEB-0355,2021-083AJ,2026-06-09T17:46:55.648704,13.13470470,.00017787,87.8943,321.7174,102.1451,257.9878,0,U,49218,999,22992,.11117663E-2,.419E-5,0
ONEWEB-0357,2021-083AK,2026-06-09T16:56:53.425824,13.20772277,.00018263,87.9191,275.9234,105.7073,254.4262,0,U,49219,999,23582,-.66602074E-4,-.14E-6,0
ONEWEB-0332,2021-090A,2026-06-09T14:33:51.192864,13.14502797,.0001648,87.8959,291.2200,97.5587,262.5730,0,U,49279,999,22658,-.83675177E-3,-.297E-5,0
ONEWEB-0347,2021-090B,2026-06-09T16:42:20.270016,13.20770713,.00017229,87.9191,275.9335,97.1066,263.0264,0,U,49280,999,23005,-.11501477E-3,-.34E-6,0
ONEWEB-0349,2021-090C,2026-06-09T13:50:13.818912,13.20772362,.00019776,87.9191,275.9581,101.2971,258.8385,0,U,49281,999,22882,.21452767E-3,.1E-5,0
ONEWEB-0353,2021-090D,2026-06-09T14:22:27.716160,13.14502718,.0001652,87.8963,291.2170,96.1755,263.9563,0,U,49282,999,22658,.20477767E-3,.89E-6,0
ONEWEB-0356,2021-090E,2026-06-09T17:25:59.036736,13.20773010,.00022996,87.9191,275.9214,80.4128,279.7265,0,U,49283,999,22884,.85697007E-4,.48E-6,0
ONEWEB-0358,2021-090F,2026-06-09T16:20:02.574240,13.20448814,.00018835,87.9178,275.9367,102.4163,257.7181,0,U,49284,999,22956,-.83291523E-1,-.33567E-3,0
ONEWEB-0359,2021-090G,2026-06-09T14:26:35.275488,13.20773274,.00022474,87.9190,275.9460,102.0948,258.0437,0,U,49285,999,22953,.95267175E-4,.52E-6,0
ONEWEB-0360,2021-090H,2026-06-09T14:12:02.785824,13.20765531,.00020751,87.9189,275.9543,103.9375,256.1989,0,U,49286,999,22884,.4650042E-3,.202E-5,0
ONEWEB-0361,2021-090J,2026-06-09T17:23:32.542944,13.20770880,.00020913,87.9191,275.9264,99.4391,260.6978,0,U,49287,999,22931,.84864065E-4,.47E-6,0
ONEWEB-0362,2021-090K,2026-06-09T16:06:45.217152,13.19724036,.0001802,87.9163,306.4758,105.8520,254.2812,0,U,49288,999,22592,.23503145E-3,.107E-5,0
ONEWEB-0363,2021-090L,2026-06-09T14:07:10.368480,13.20770615,.00021201,87.9190,275.9538,92.3431,267.7945,0,U,49289,999,22930,.14072652E-3,.7E-6,0
ONEWEB-0364,2021-090M,2026-06-09T18:41:07.266912,13.20770982,.00019669,87.9185,275.9238,101.2480,258.8875,0,U,49290,999,23046,-.11899725E-4,.8E-7,0
